STARLINK-2022           
1 47643U 21012Z   24119.56392494  .00002116  00000+0  16111-3 0  9991
2 47643  53.0528 224.8186 0001739 110.5443 249.5732 15.06352580177235
